OBJECT_NAME,OBJECT_ID,EPOCH,MEAN_MOTION,ECCENTRICITY,INCLINATION,RA_OF_ASC_NODE,ARG_OF_PERICENTER,MEAN_ANOMALY,EPHEMERIS_TYPE,CLASSIFICATION_TYPE,NORAD_CAT_ID,ELEMENT_SET_NO,REV_AT_EPOCH,BSTAR,MEAN_MOTION_DOT,MEAN_MOTION_DDOT
KUZGTU 1 (RS47S),2023-091AV,2026-06-27T22:57:11.685600,15.30102055,.00117974,97.5066,243.5469,64.5075,295.7385,0,U,57217,999,16602,.42058769E-3,.12206E-3,0
SONATE-2,2024-043Q,2026-06-27T20:33:46.301760,15.59513453,.00072882,97.5535,329.9134,160.8261,199.3271,0,U,59112,999,12955,.48835608E-3,.38779E-3,0
MESAT1,2024-125G,2026-06-27T20:33:56.573856,15.64380819,.00105832,97.2278,36.5908,166.6866,193.4675,0,U,60209,999,11123,.60122383E-3,.57869E-3,0
OOV-CUBE (TUBSAT-30),2024-128F,2026-06-27T12:02:51.245664,15.02808571,.00433476,61.9924,189.6042,136.0616,224.3935,0,U,60240,999,10766,.14006766E-3,.1706E-4,0
COLIBRI-S (RS67S),2024-199M,2026-06-27T22:07:58.848960,15.48158131,.00067859,97.2982,52.8767,227.0421,133.0261,0,U,61746,999,13907,.43178785E-3,.22649E-3,0
HORS 3 (RS81S),2024-199U,2026-06-27T21:33:36.364320,15.55708354,.00046399,97.2969,54.9571,218.5241,141.5683,0,U,61753,999,13922,.54431597E-3,.37482E-3,0
HORS 4 (RS82S),2024-199V,2026-06-27T22:53:49.868160,15.60687368,.00045782,97.2913,56.2868,202.9316,157.1738,0,U,61754,999,13932,.60137832E-3,.49996E-3,0
SIT-2086,2024-199AF,2026-06-27T22:53:45.256992,15.53820475,.0005936,97.2926,55.4532,201.7981,158.3021,0,U,61764,999,13610,.57840126E-3,.37192E-3,0
HYPERVIEW 1G (RS66S),2024-199AP,2026-06-27T21:52:39.964224,15.78955289,.00062894,97.2858,59.1949,185.2556,174.8647,0,U,61772,999,13636,.95105106E-3,.17083E-2,0
ALTAIR (RS65S),2024-199AW,2026-06-27T22:02:40.670592,15.37222486,.00107593,97.3021,48.1995,266.1292,93.8723,0,U,61779,999,13876,.30805898E-3,.11173E-3,0
ASRTU-1 (AO-123),2024-199AY,2026-06-27T21:58:58.162080,15.35823503,.00118678,97.2992,47.4906,269.7576,90.2308,0,U,61781,999,13557,.21881447E-3,.7563E-4,0
SAMSAT-IONOSPHERE (RS75S),2024-199BB,2026-06-27T21:55:22.748736,15.58562013,.0006806,97.2934,55.0593,223.3532,136.7189,0,U,61784,999,13923,.55510627E-3,.42555E-3,0
RTU MIREA 1 (RS51S),2024-199BC,2026-06-27T21:55:15.320928,15.62260631,.00068115,97.2921,55.9481,215.1482,144.9328,0,U,61785,999,13614,.64549457E-3,.57102E-3,0
TEVEL2-4,2025-052D,2026-06-27T16:17:56.111424,15.34970355,.00048165,97.3898,75.0900,83.9278,276.2514,0,U,63213,999,7172,.54141956E-3,.18314E-3,0
TEVEL2-5,2025-052E,2026-06-27T23:04:42.830976,15.34803473,.00047671,97.3898,75.3176,85.2534,274.9254,0,U,63214,999,7176,.53187961E-3,.17894E-3,0
TEVEL2-6,2025-052F,2026-06-27T23:22:49.407744,15.34768423,.00046225,97.3903,75.3149,85.5133,274.6639,0,U,63215,999,7176,.54213281E-3,.1822E-3,0
TEVEL2-1,2025-052H,2026-06-27T22:36:09.920736,15.34217812,.00050002,97.3869,74.8938,93.0368,267.1448,0,U,63217,999,7174,.5267071E-3,.17392E-3,0
TEVEL2-3,2025-052J,2026-06-27T16:12:12.754368,15.34268290,.00048814,97.3877,74.6501,94.2847,265.8954,0,U,63218,999,7170,.53681985E-3,.17756E-3,0
TEVEL2-2,2025-052K,2026-06-27T16:20:50.698176,15.34219426,.00050161,97.3873,74.6358,93.8632,266.3184,0,U,63219,999,7170,.51178258E-3,.16897E-3,0
OTP-2,2025-052AB,2026-06-27T22:18:00.700992,15.24119819,.0008083,97.3866,71.1990,117.5332,242.6728,0,U,63235,999,7150,.34846575E-3,.8409E-4,0
TEVEL2-9,2025-052AD,2026-06-27T16:07:58.668384,15.32210975,.00083025,97.3934,73.9793,103.0341,257.1828,0,U,63237,999,7163,.51174127E-3,.15869E-3,0
TEVEL2-7,2025-052AE,2026-06-27T23:26:03.922656,15.31916653,.00083708,97.3939,74.1944,102.4265,257.7914,0,U,63238,999,7167,.50544504E-3,.15528E-3,0
TEVEL2-8,2025-052AF,2026-06-27T23:38:06.030528,15.31902386,.00084099,97.3936,74.1792,103.1017,257.1163,0,U,63239,999,7167,.52787657E-3,.16215E-3,0
INNOSAT 16 (RS92S7),2025-155C,2026-06-27T22:57:01.389312,15.25566827,.00117244,97.4564,146.0502,140.1862,220.0238,0,U,64878,999,8231,.22327442E-3,.5604E-4,0
GEOSCAN 6 (RS92S6),2025-155D,2026-06-27T21:44:17.077344,15.30346667,.00095043,97.4555,147.5002,130.1399,230.0676,0,U,64879,999,8240,.33993754E-3,.9916E-4,0
GEOSCAN 1 (RS92S1),2025-155E,2026-06-27T21:41:43.056384,15.30965274,.00094291,97.4551,147.6558,130.1099,230.0970,0,U,64880,999,8241,.38288598E-3,.11397E-3,0
239ALFEROV (RS61S),2025-155F,2026-06-27T22:09:37.990368,15.33222091,.00091446,97.4551,148.2732,128.4778,231.7286,0,U,64881,999,8245,.47053818E-3,.15056E-3,0
GEOSCAN 2 (RS92S2),2025-155Q,2026-06-27T23:04:00.461280,15.31228412,.0009033,97.4551,147.8700,118.8541,241.3608,0,U,64890,999,8243,.32866575E-3,.985E-4,0
GEOSCAN 5 (RS92S5),2025-155R,2026-06-27T21:50:38.220576,15.33538056,.00080079,97.4543,148.4015,131.8767,228.3160,0,U,64891,999,8246,.44700729E-3,.14437E-3,0
GEOSCAN 4 (RS92S4),2025-155S,2026-06-27T23:00:15.283872,15.33697700,.00080518,97.4547,148.5019,131.3952,228.7984,0,U,64892,999,8247,.43745897E-3,.14198E-3,0
