KUZGTU 1 (RS47S)        
1 57217U 23091AV  26178.95638525  .00012206  00000+0  42059-3 0  9997
2 57217  97.5066 243.5469 0011797  64.5075 295.7385 15.30102055166028
SONATE-2                
1 59112U 24043Q   26178.85678590  .00038779  00000+0  48836-3 0  9998
2 59112  97.5535 329.9134 0007288 160.8261 199.3271 15.59513453129559
MESAT1                  
1 60209U 24125G   26178.85690479  .00057869  00000+0  60122-3 0  9991
2 60209  97.2278  36.5908 0010583 166.6866 193.4675 15.64380819111239
OOV-CUBE (TUBSAT-30)    
1 60240U 24128F   26178.50198201  .00001706  00000+0  14007-3 0  9997
2 60240  61.9924 189.6042 0043347 136.0616 224.3935 15.02808571107664
COLIBRI-S (RS67S)       
1 61746U 24199M   26178.92220890  .00022649  00000+0  43179-3 0  9994
2 61746  97.2982  52.8767 0006785 227.0421 133.0261 15.48158131139075
HORS 3 (RS81S)          
1 61753U 24199U   26178.89833755  .00037482  00000+0  54432-3 0  9993
2 61753  97.2969  54.9571 0004639 218.5241 141.5683 15.55708354139220
HORS 4 (RS82S)          
1 61754U 24199V   26178.95404940  .00049996  00000+0  60138-3 0  9994
2 61754  97.2913  56.2868 0004578 202.9316 157.1738 15.60687368139328
SIT-2086                
1 61764U 24199AF  26178.95399603  .00037192  00000+0  57840-3 0  9995
2 61764  97.2926  55.4532 0005936 201.7981 158.3021 15.53820475136107
HYPERVIEW 1G (RS66S)    
1 61772U 24199AP  26178.91157366  .00170830  00000+0  95105-3 0  9991
2 61772  97.2858  59.1949 0006289 185.2556 174.8647 15.78955289136363
ALTAIR (RS65S)          
1 61779U 24199AW  26178.91852628  .00011173  00000+0  30806-3 0  9992
2 61779  97.3021  48.1995 0010759 266.1292  93.8723 15.37222486138767
ASRTU-1 (AO-123)        
1 61781U 24199AY  26178.91595095  .00007563  00000+0  21881-3 0  9998
2 61781  97.2992  47.4906 0011867 269.7576  90.2308 15.35823503135576
SAMSAT-IONOSPHERE (RS7*)
1 61784U 24199BB  26178.91345774  .00042555  00000+0  55511-3 0  9995
2 61784  97.2934  55.0593 0006806 223.3532 136.7189 15.58562013139238
RTU MIREA 1 (RS51S)     
1 61785U 24199BC  26178.91337177  .00057102  00000+0  64549-3 0  9999
2 61785  97.2921  55.9481 0006811 215.1482 144.9328 15.62260631136148
TEVEL2-4                
1 63213U 25052D   26178.67912166  .00018314  00000+0  54142-3 0  9996
2 63213  97.3898  75.0900 0004816  83.9278 276.2514 15.34970355 71724
TEVEL2-5                
1 63214U 25052E   26178.96160684  .00017894  00000+0  53188-3 0  9990
2 63214  97.3898  75.3176 0004767  85.2534 274.9254 15.34803473 71764
TEVEL2-6                
1 63215U 25052F   26178.97418296  .00018220  00000+0  54213-3 0  9991
2 63215  97.3903  75.3149 0004622  85.5133 274.6639 15.34768423 71769
TEVEL2-1                
1 63217U 25052H   26178.94178149  .00017392  00000+0  52671-3 0  9995
2 63217  97.3869  74.8938 0005000  93.0368 267.1448 15.34217812 71741
TEVEL2-3                
1 63218U 25052J   26178.67514762  .00017756  00000+0  53682-3 0  9998
2 63218  97.3877  74.6501 0004881  94.2847 265.8954 15.34268290 71705
TEVEL2-2                
1 63219U 25052K   26178.68114234  .00016897  00000+0  51178-3 0  9993
2 63219  97.3873  74.6358 0005016  93.8632 266.3184 15.34219426 71708
OTP-2                   
1 63235U 25052AB  26178.92917478  .00008409  00000+0  34847-3 0  9993
2 63235  97.3866  71.1990 0008083 117.5332 242.6728 15.24119819 71503
TEVEL2-9                
1 63237U 25052AD  26178.67220681  .00015869  00000+0  51174-3 0  9990
2 63237  97.3934  73.9793 0008302 103.0341 257.1828 15.32210975 71636
TEVEL2-7                
1 63238U 25052AE  26178.97643429  .00015528  00000+0  50545-3 0  9996
2 63238  97.3939  74.1944 0008370 102.4265 257.7914 15.31916653 71677
TEVEL2-8                
1 63239U 25052AF  26178.98479202  .00016215  00000+0  52788-3 0  9999
2 63239  97.3936  74.1792 0008409 103.1017 257.1163 15.31902386 71670
INNOSAT 16 (RS92S7)     
1 64878U 25155C   26178.95626608  .00005604  00000+0  22327-3 0  9990
2 64878  97.4564 146.0502 0011724 140.1862 220.0238 15.25566827 82313
GEOSCAN 6 (RS92S6)      
1 64879U 25155D   26178.90575321  .00009916  00000+0  33994-3 0  9993
2 64879  97.4555 147.5002 0009504 130.1399 230.0676 15.30346667 82403
GEOSCAN 1 (RS92S1)      
1 64880U 25155E   26178.90397056  .00011397  00000+0  38289-3 0  9990
2 64880  97.4551 147.6558 0009429 130.1099 230.0970 15.30965274 82410
239ALFEROV (RS61S)      
1 64881U 25155F   26178.92335637  .00015056  00000+0  47054-3 0  9996
2 64881  97.4551 148.2732 0009144 128.4778 231.7286 15.33222091 82458
GEOSCAN 2 (RS92S2)      
1 64890U 25155Q   26178.96111645  .00009850  00000+0  32867-3 0  9992
2 64890  97.4551 147.8700 0009033 118.8541 241.3608 15.31228412 82430
GEOSCAN 5 (RS92S5)      
1 64891U 25155R   26178.91016459  .00014437  00000+0  44701-3 0  9992
2 64891  97.4543 148.4015 0008007 131.8767 228.3160 15.33538056 82464
GEOSCAN 4 (RS92S4)      
1 64892U 25155S   26178.95851023  .00014198  00000+0  43746-3 0  9993
2 64892  97.4547 148.5019 0008051 131.3952 228.7984 15.33697700 82475
